OBJECT_NAME,OBJECT_ID,EPOCH,MEAN_MOTION,ECCENTRICITY,INCLINATION,RA_OF_ASC_NODE,ARG_OF_PERICENTER,MEAN_ANOMALY,EPHEMERIS_TYPE,CLASSIFICATION_TYPE,NORAD_CAT_ID,ELEMENT_SET_NO,REV_AT_EPOCH,BSTAR,MEAN_MOTION_DOT,MEAN_MOTION_DDOT
OCEANSAT-2,2009-051A,2026-06-14T11:35:38.658912,13.99664777,.0014998,98.2324,152.6042,244.1715,115.7905,0,U,35931,999,87895,-.24941E-4,-.74E-6,0
WORLDVIEW-2 (WV-2),2009-055A,2026-06-14T12:28:07.163904,14.37898724,.0003554,98.4737,239.0058,217.2140,142.8801,0,U,35946,999,87526,.50833E-4,.11E-5,0
SMOS,2009-059A,2026-06-14T11:30:02.782368,14.39771311,.0001321,98.4424,352.8538,89.5523,270.5817,0,U,36036,999,87306,.84014E-4,.22E-5,0
YAOGAN-7,2009-069A,2026-06-14T10:45:51.073056,14.78007388,.0025709,98.0076,51.3324,50.1876,310.1592,0,U,36110,999,88922,.68296E-4,.442E-5,0
TANDEM-X,2010-030A,2026-06-13T08:54:45.777024,15.19145408,.0001853,97.4453,172.1345,92.9116,267.2331,0,U,36605,999,88606,.29649083E-4,.556E-5,0
CARTOSAT-2B,2010-035A,2026-06-14T11:56:28.313952,14.78658877,.0010972,97.9959,216.0646,192.5807,167.5132,0,U,36795,999,85945,.13083E-3,.907E-5,0
YAOGAN-10,2010-038A,2026-06-14T12:47:18.570048,14.85344634,.0001718,97.8977,188.9584,85.4829,34.6670,0,U,36834,999,85681,.24245E-3,.2031E-4,0
COSMO-SKYMED 4,2010-060A,2026-06-14T12:58:44.944608,14.82153011,.0001405,97.8881,349.1790,84.2286,275.9087,0,U,37216,999,84417,.11286E-3,.846E-5,0
RESOURCESAT-2,2011-015A,2026-06-14T11:38:11.128992,14.21605861,.0010152,98.7644,232.9452,264.1937,95.8082,0,U,37387,999,78579,.51591E-4,.69E-6,0
HAIYANG-2A,2011-043A,2026-06-14T11:46:19.098912,13.74459490,.0006202,99.3389,168.2260,95.1871,264.9986,0,U,37781,999,74628,.1676E-3,.115E-5,0
RASAT,2011-044D,2026-06-14T12:45:47.584800,14.68164724,.0019973,98.0578,256.9690,197.3919,289.1546,0,U,37791,999,79279,.10965E-3,.583E-5,0
SRMSAT,2011-058D,2026-06-14T11:39:51.308928,14.11575039,.0011843,19.9719,75.8168,173.9008,0.9019,0,U,37841,999,75743,.48806E-4,.355E-5,0
PLEIADES 1A,2011-076F,2026-06-14T12:44:08.313792,14.58570160,.0001633,98.1982,240.6692,97.4485,26.4807,0,U,38012,999,77160,.11241E-3,.477E-5,0
ZIYUAN 1-02C (ZY 1-02C),2011-079A,2026-06-14T12:19:40.644768,14.38213920,.0005667,98.4079,232.8780,326.2680,158.8241,0,U,38038,999,75882,.2492E-3,.714E-5,0
ARIRANG-3 (KOMPSAT-3),2012-025B,2026-06-14T12:01:07.088736,14.62204027,.0006589,98.1176,123.0070,116.1460,244.0420,0,U,38338,999,75095,.83354E-4,.373E-5,0
EXACTVIEW-1 (ADS-1B),2012-039C,2026-06-14T07:00:06.934752,14.24983754,.0011008,98.9774,282.6166,174.5344,185.5957,0,U,38709,999,72229,.54332E-4,.81E-6,0
SPOT 6,2012-047A,2026-06-14T12:32:13.488576,14.58562543,.0001489,98.2127,232.8624,92.3448,267.7922,0,U,38755,999,73266,.13193E-3,.568E-5,0
PLEIADES 1B,2012-068A,2026-06-14T11:20:40.433280,14.58559835,.0001656,98.1953,240.5615,93.2905,266.8483,0,U,39019,999,72045,.11731E-3,.5E-5,0
GOKTURK 2,2012-073A,2026-06-14T12:05:36.774240,14.75540200,.000167,97.6820,3.0702,58.4809,301.6564,0,U,39030,999,72411,.7094E-4,.436E-5,0
LANDSAT 8,2013-008A,2026-06-14T11:36:51.621120,14.57092833,.0001368,98.2302,235.6512,93.5474,266.5881,0,U,39084,999,69750,.71664E-4,.277E-5,0
SARAL,2013-009A,2026-06-14T12:38:53.431584,14.32855357,.0000835,98.5555,352.1279,325.2436,34.8694,0,U,39086,999,69522,.46456E-4,.83E-6,0
GAOFEN-1,2013-018A,2026-06-14T11:42:30.430080,14.76534185,.0015704,97.9102,237.6104,276.0135,83.9285,0,U,39150,999,70784,.1063E-3,.691E-5,0
VNREDSAT 1,2013-021B,2026-06-14T11:50:24.989856,14.64854538,.0001696,97.9088,219.0131,89.6844,270.4554,0,U,39160,999,69989,.10274E-3,.503E-5,0
ARIRANG-5 (KOMPSAT-5),2013-042A,2026-06-14T12:08:14.568288,15.04484625,.0005188,97.6207,352.2444,126.9771,233.1930,0,U,39227,999,70345,.87813E-4,.1168E-4,0
SKYSAT-A,2013-066C,2026-06-14T09:55:21.087264,15.12962593,.0020343,97.3817,214.8989,327.6661,32.3322,0,U,39418,999,68806,.18279E-3,.3174E-4,0
DUBAISAT-2,2013-066D,2026-06-14T11:40:49.048320,15.10168662,.0012694,97.4557,155.7010,49.4994,310.7339,0,U,39419,999,68598,.33692E-3,.5447E-4,0
GPM-CORE,2014-009C,2026-06-14T11:45:33.950592,15.44518728,.0011956,64.9722,317.1594,250.5930,109.3918,0,U,39574,999,69739,.24597E-3,.11264E-3,0
SENTINEL-1A,2014-016A,2026-06-14T11:41:59.656992,14.59199441,.0001447,98.1775,173.0593,81.0737,279.0626,0,U,39634,999,64962,.47004E-5,-.24E-6,0
KAZEOSAT 1,2014-024A,2026-06-14T12:34:20.324640,14.42079759,.000139,98.3213,238.0372,74.0367,286.0975,0,U,39731,999,63817,.12135E-3,.356E-5,0
ALOS-2,2014-029A,2026-06-14T13:39:31.440096,14.79479885,.0001586,97.9222,262.7704,97.0240,263.1151,0,U,39766,999,65119,.1707E-3,.1224E-4,0
KAZEOSAT 2,2014-033A,2026-06-14T12:51:17.701056,14.85469132,.0008131,97.5410,5.2882,339.2860,20.8025,0,U,40010,999,64856,.96645E-4,.784E-5,0
