OCEANSAT-2              
1 35931U 09051A   26165.48308633 -.00000074  00000+0 -24941-4 0  9997
2 35931  98.2324 152.6042 0014998 244.1715 115.7905 13.99664777878950
WORLDVIEW-2 (WV-2)      
1 35946U 09055A   26165.51952736  .00000110  00000+0  50833-4 0  9998
2 35946  98.4737 239.0058 0003554 217.2140 142.8801 14.37898724875263
SMOS                    
1 36036U 09059A   26165.47919887  .00000220  00000+0  84014-4 0  9998
2 36036  98.4424 352.8538 0001321  89.5523 270.5817 14.39771311873065
YAOGAN-7                
1 36110U 09069A   26165.44850779  .00000442  00000+0  68296-4 0  9993
2 36110  98.0076  51.3324 0025709  50.1876 310.1592 14.78007388889227
TANDEM-X                
1 36605U 10030A   26164.37136316  .00000556  00000+0  29649-4 0  9992
2 36605  97.4453 172.1345 0001853  92.9116 267.2331 15.19145408886062
CARTOSAT-2B             
1 36795U 10035A   26165.49754993  .00000907  00000+0  13083-3 0  9992
2 36795  97.9959 216.0646 0010972 192.5807 167.5132 14.78658877859453
YAOGAN-10               
1 36834U 10038A   26165.53285382  .00002031  00000+0  24245-3 0  9997
2 36834  97.8977 188.9584 0001718  85.4829  34.6670 14.85344634856815
COSMO-SKYMED 4          
1 37216U 10060A   26165.54079797  .00000846  00000+0  11286-3 0  9992
2 37216  97.8881 349.1790 0001405  84.2286 275.9087 14.82153011844173
RESOURCESAT-2           
1 37387U 11015A   26165.48485103  .00000069  00000+0  51591-4 0  9998
2 37387  98.7644 232.9452 0010152 264.1937  95.8082 14.21605861785798
HAIYANG-2A              
1 37781U 11043A   26165.49049883  .00000115  00000+0  16760-3 0  9999
2 37781  99.3389 168.2260 0006202  95.1871 264.9986 13.74459490746282
RASAT                   
1 37791U 11044D   26165.53180075  .00000583  00000+0  10965-3 0  9995
2 37791  98.0578 256.9690 0019973 197.3919 289.1546 14.68164724792793
SRMSAT                  
1 37841U 11058D   26165.48601052  .00000355  00000+0  48806-4 0  9996
2 37841  19.9719  75.8168 0011843 173.9008   0.9019 14.11575039757432
PLEIADES 1A             
1 38012U 11076F   26165.53065178  .00000477  00000+0  11241-3 0  9993
2 38012  98.1982 240.6692 0001633  97.4485  26.4807 14.58570160771607
ZIYUAN 1-02C (ZY 1-02C) 
1 38038U 11079A   26165.51366487  .00000714  00000+0  24920-3 0  9991
2 38038  98.4079 232.8780 0005667 326.2680 158.8241 14.38213920758824
ARIRANG-3 (KOMPSAT-3)   
1 38338U 12025B   26165.50077649  .00000373  00000+0  83354-4 0  9992
2 38338  98.1176 123.0070 0006589 116.1460 244.0420 14.62204027750959
EXACTVIEW-1 (ADS-1B)    
1 38709U 12039C   26165.29174693  .00000081  00000+0  54332-4 0  9992
2 38709  98.9774 282.6166 0011008 174.5344 185.5957 14.24983754722291
SPOT 6                  
1 38755U 12047A   26165.52237834  .00000568  00000+0  13193-3 0  9994
2 38755  98.2127 232.8624 0001489  92.3448 267.7922 14.58562543732660
PLEIADES 1B             
1 39019U 12068A   26165.47269020  .00000500  00000+0  11731-3 0  9999
2 39019  98.1953 240.5615 0001656  93.2905 266.8483 14.58559835720456
GOKTURK 2               
1 39030U 12073A   26165.50389785  .00000436  00000+0  70940-4 0  9999
2 39030  97.6820   3.0702 0001670  58.4809 301.6564 14.75540200724117
LANDSAT 8               
1 39084U 13008A   26165.48393080  .00000277  00000+0  71664-4 0  9994
2 39084  98.2302 235.6512 0001368  93.5474 266.5881 14.57092833697509
SARAL                   
1 39086U 13009A   26165.52700731  .00000083  00000+0  46456-4 0  9993
2 39086  98.5555 352.1279 0000835 325.2436  34.8694 14.32855357695226
GAOFEN-1                
1 39150U 13018A   26165.48785220  .00000691  00000+0  10630-3 0  9995
2 39150  97.9102 237.6104 0015704 276.0135  83.9285 14.76534185707847
VNREDSAT 1              
1 39160U 13021B   26165.49334479  .00000503  00000+0  10274-3 0  9993
2 39160  97.9088 219.0131 0001696  89.6844 270.4554 14.64854538699896
ARIRANG-5 (KOMPSAT-5)   
1 39227U 13042A   26165.50572417  .00001168  00000+0  87813-4 0  9990
2 39227  97.6207 352.2444 0005188 126.9771 233.1930 15.04484625703454
SKYSAT-A                
1 39418U 13066C   26165.41343851  .00003174  00000+0  18279-3 0  9994
2 39418  97.3817 214.8989 0020343 327.6661  32.3322 15.12962593688062
DUBAISAT-2              
1 39419U 13066D   26165.48667880  .00005447  00000+0  33692-3 0  9994
2 39419  97.4557 155.7010 0012694  49.4994 310.7339 15.10168662685983
GPM-CORE                
1 39574U 14009C   26165.48997628  .00011264  00000+0  24597-3 0  9998
2 39574  64.9722 317.1594 0011956 250.5930 109.3918 15.44518728697396
SENTINEL-1A             
1 39634U 14016A   26165.48749603 -.00000024  00000+0  47004-5 0  9994
2 39634  98.1775 173.0593 0001447  81.0737 279.0626 14.59199441649620
KAZEOSAT 1              
1 39731U 14024A   26165.52384635  .00000356  00000+0  12135-3 0  9998
2 39731  98.3213 238.0372 0001390  74.0367 286.0975 14.42079759638176
ALOS-2                  
1 39766U 14029A   26165.56911389  .00001224  00000+0  17070-3 0  9995
2 39766  97.9222 262.7704 0001586  97.0240 263.1151 14.79479885651197
KAZEOSAT 2              
1 40010U 14033A   26165.53562154  .00000784  00000+0  96645-4 0  9999
2 40010  97.5410   5.2882 0008131 339.2860  20.8025 14.85469132648561
